DUCHIFAT-3              
1 44854U 19089C   20135.45752204  .00000249  00000-0  26527-4 0  9993
2 44854  36.9666 299.2563 0006704 153.0030 207.1140 14.99047284 23196
ORBITAL FACTORY 2 (OF-2)
1 45113U 19071C   20135.13598259  .00000679  00000-0  32411-4 0  9992
2 45113  51.6432 169.3112 0012699 295.2262  64.7403 15.33232787 15860
